GLOBALSTAR M094         
1 39074U 13005C   24288.46865962 -.00000097  00000+0  35692-4 0  9997
2 39074  51.9947 210.2568 0000980  70.7059 289.3914 12.62269422541348
GLOBALSTAR M096         
1 39075U 13005D   24288.32348642 -.00000088  00000+0  90230-4 0  9993
2 39075  52.0063 259.0216 0000843  65.7376 294.3578 12.62271549540248
GLOBALSTAR M078         
1 39076U 13005E   24288.53432644 -.00000002  00000+0  56511-3 0  9992
2 39076  51.9894 343.2228 0000980  24.7585 335.3329 12.62275225538890
GLOBALSTAR M095         
1 39077U 13005F   24288.48191490 -.00000054  00000+0  27521-3 0  9994
2 39077  51.9821 340.7041 0000863  59.9549 300.1403 12.62266188538741
GLOBALSTAR M087         
1 52888U 22064A   24288.58995768 -.00000042  00000+0  16347-3 0  9996
2 52888  51.9742 152.0249 0008807 311.9032  48.1117 13.37589949113506
